{"type": "FeatureCollection", "features": [ {"type": "Feature", "properties": {"norad_id": 42741, "name": "EUTELSAT 172B", "group": "eutelsat", "lat": 0.0022381298157774267, "lon": 31.000829281942668, "alt_km": 35786.85393101575, "timestamp": "2025-12-06T09:34:16.589276+00:00", "meta": {"OBJECT_NAME": "EUTELSAT 172B", "OBJECT_ID": "2017-029B", "EPOCH": "2025-12-05T21:21:42.715872", "MEAN_MOTION": 1.00271098, "ECCENTRICITY": 1.563e-05, "INCLINATION": 0.0102, "RA_OF_ASC_NODE": 82.7669, "ARG_OF_PERICENTER": 152.681, "MEAN_ANOMALY": 331.9231, "EPHEMERIS_TYPE": 0, "CLASSIFICATION_TYPE": "U", "NORAD_CAT_ID": 42741, "ELEMENT_SET_NO": 999, "REV_AT_EPOCH": 3179, "BSTAR": 0, "MEAN_MOTION_DOT": 4e-08, "MEAN_MOTION_DDOT": 0}, "tle": {"line1": "1 42741U 17029B   25339.89007773  .00000004  00000+0  00000+0 0  9992", "line2": "2 42741   0.0102  82.7669 0000156 152.6810 331.9231  1.00271098 31796"}}, "geometry": {"type": "Point", "coordinates": [31.000829281942668, 0.0022381298157774267]}}, {"type": "Feature", "properties": {"norad_id": 44334, "name": "EUTELSAT 7C", "group": "eutelsat", "lat": 0.02135822368165959, "lon": -134.03461355052002, "alt_km": 35772.30979563511, "timestamp": "2025-12-06T09:34:16.589288+00:00", "meta": {"OBJECT_NAME": "EUTELSAT 7C", "OBJECT_ID": "2019-034B", "EPOCH": "2025-12-05T22:17:22.382592", "MEAN_MOTION": 1.00269873, "ECCENTRICITY": 0.00034707, "INCLINATION": 0.0752, "RA_OF_ASC_NODE": 179.1841, "ARG_OF_PERICENTER": 60.4272, "MEAN_ANOMALY": 176.6899, "EPHEMERIS_TYPE": 0, "CLASSIFICATION_TYPE": "U", "NORAD_CAT_ID": 44334, "ELEMENT_SET_NO": 999, "REV_AT_EPOCH": 489, "BSTAR": 0, "MEAN_MOTION_DOT": 5.7e-07, "MEAN_MOTION_DDOT": 0}, "tle": {"line1": "1 44334U 19034B   25339.92873128  .00000057  00000+0  00000+0 0  9997", "line2": "2 44334   0.0752 179.1841 0003470  60.4272 176.6899  1.00269873  4893"}}, "geometry": {"type": "Point", "coordinates": [-134.03461355052002, 0.02135822368165959]}}, {"type": "Feature", "properties": {"norad_id": 44624, "name": "EUTELSAT 5 WEST B", "group": "eutelsat", "lat": -0.08084622171192879, "lon": -146.02864009348613, "alt_km": 35775.078455595896, "timestamp": "2025-12-06T09:34:16.589299+00:00", "meta": {"OBJECT_NAME": "EUTELSAT 5 WEST B", "OBJECT_ID": "2019-067A", "EPOCH": "2025-12-05T22:14:00.204864", "MEAN_MOTION": 1.00270341, "ECCENTRICITY": 0.00035993, "INCLINATION": 0.0675, "RA_OF_ASC_NODE": 333.8553, "ARG_OF_PERICENTER": 281.7086, "MEAN_ANOMALY": 147.9161, "EPHEMERIS_TYPE": 0, "CLASSIFICATION_TYPE": "U", "NORAD_CAT_ID": 44624, "ELEMENT_SET_NO": 999, "REV_AT_EPOCH": 2249, "BSTAR": 0, "MEAN_MOTION_DOT": -3.3e-07, "MEAN_MOTION_DDOT": 0}, "tle": {"line1": "1 44624U 19067A   25339.92639126 -.00000033  00000+0  00000+0 0  9998", "line2": "2 44624   0.0675 333.8553 0003599 281.7086 147.9161  1.00270341 22492"}}, "geometry": {"type": "Point", "coordinates": [-146.02864009348613, -0.08084622171192879]}}, {"type": "Feature", "properties": {"norad_id": 45027, "name": "EUTELSAT KONNECT", "group": "eutelsat", "lat": 0.02453091892574763, "lon": -133.84307314442543, "alt_km": 35783.13845722766, "timestamp": "2025-12-06T09:34:16.589311+00:00", "meta": {"OBJECT_NAME": "EUTELSAT KONNECT", "OBJECT_ID": "2020-005B", "EPOCH": "2025-12-05T22:17:29.870880", "MEAN_MOTION": 1.00267987, "ECCENTRICITY": 0.00018557, "INCLINATION": 0.0712, "RA_OF_ASC_NODE": 98.3329, "ARG_OF_PERICENTER": 187.648, "MEAN_ANOMALY": 130.555, "EPHEMERIS_TYPE": 0, "CLASSIFICATION_TYPE": "U", "NORAD_CAT_ID": 45027, "ELEMENT_SET_NO": 999, "REV_AT_EPOCH": 2238, "BSTAR": 0, "MEAN_MOTION_DOT": 5.8e-07, "MEAN_MOTION_DDOT": 0}, "tle": {"line1": "1 45027U 20005B   25339.92881795  .00000058  00000+0  00000+0 0  9997", "line2": "2 45027   0.0712  98.3329 0001855 187.6480 130.5550  1.00267987 22381"}}, "geometry": {"type": "Point", "coordinates": [-133.84307314442543, 0.02453091892574763]}}, {"type": "Feature", "properties": {"norad_id": 49056, "name": "EUTELSAT QUANTUM", "group": "eutelsat", "lat": -0.03563224165646666, "lon": -93.30349661027094, "alt_km": 35770.747901402436, "timestamp": "2025-12-06T09:34:16.589322+00:00", "meta": {"OBJECT_NAME": "EUTELSAT QUANTUM", "OBJECT_ID": "2021-069B", "EPOCH": "2025-12-05T21:42:38.692800", "MEAN_MOTION": 1.00270217, "ECCENTRICITY": 0.00037114, "INCLINATION": 0.0249, "RA_OF_ASC_NODE": 38.192, "ARG_OF_PERICENTER": 229.0136, "MEAN_ANOMALY": 181.1111, "EPHEMERIS_TYPE": 0, "CLASSIFICATION_TYPE": "U", "NORAD_CAT_ID": 49056, "ELEMENT_SET_NO": 999, "REV_AT_EPOCH": 1599, "BSTAR": 0, "MEAN_MOTION_DOT": 1.35e-06, "MEAN_MOTION_DDOT": 0}, "tle": {"line1": "1 49056U 21069B   25339.90461450  .00000135  00000+0  00000+0 0  9990", "line2": "2 49056   0.0249  38.1920 0003711 229.0136 181.1111  1.00270217 15997"}}, "geometry": {"type": "Point", "coordinates": [-93.30349661027094, -0.03563224165646666]}}, {"type": "Feature", "properties": {"norad_id": 53765, "name": "EUTELSAT KONNECT VHTS", "group": "eutelsat", "lat": 0.02173138636441951, "lon": -138.2883108175052, "alt_km": 35771.5775481541, "timestamp": "2025-12-06T09:34:16.589333+00:00", "meta": {"OBJECT_NAME": "EUTELSAT KONNECT VHTS", "OBJECT_ID": "2022-110A", "EPOCH": "2025-12-05T22:16:07.502304", "MEAN_MOTION": 1.00277997, "ECCENTRICITY": 0.00030294, "INCLINATION": 0.0606, "RA_OF_ASC_NODE": 109.2727, "ARG_OF_PERICENTER": 118.3682, "MEAN_ANOMALY": 184.0741, "EPHEMERIS_TYPE": 0, "CLASSIFICATION_TYPE": "U", "NORAD_CAT_ID": 53765, "ELEMENT_SET_NO": 999, "REV_AT_EPOCH": 488, "BSTAR": 0, "MEAN_MOTION_DOT": 2.8e-07, "MEAN_MOTION_DDOT": 0}, "tle": {"line1": "1 53765U 22110A   25339.92786461  .00000028  00000+0  00000+0 0  9995", "line2": "2 53765   0.0606 109.2727 0003029 118.3682 184.0741  1.00277997  4888"}}, "geometry": {"type": "Point", "coordinates": [-138.2883108175052, 0.02173138636441951]}}, {"type": "Feature", "properties": {"norad_id": 54048, "name": "EUTELSAT HOTBIRD 13F", "group": "eutelsat", "lat": -0.06309753188390678, "lon": -128.0257811340615, "alt_km": 35790.92097776927, "timestamp": "2025-12-06T09:34:16.589345+00:00", "meta": {"OBJECT_NAME": "EUTELSAT HOTBIRD 13F", "OBJECT_ID": "2022-134A", "EPOCH": "2025-12-05T22:19:07.215168", "MEAN_MOTION": 1.00271294, "ECCENTRICITY": 0.00022422, "INCLINATION": 0.0469, "RA_OF_ASC_NODE": 293.9062, "ARG_OF_PERICENTER": 58.223, "MEAN_ANOMALY": 70.6291, "EPHEMERIS_TYPE": 0, "CLASSIFICATION_TYPE": "U", "NORAD_CAT_ID": 54048, "ELEMENT_SET_NO": 999, "REV_AT_EPOCH": 1143, "BSTAR": 0, "MEAN_MOTION_DOT": 9.6e-07, "MEAN_MOTION_DDOT": 0}, "tle": {"line1": "1 54048U 22134A   25339.92994462  .00000096  00000+0  00000+0 0  9993", "line2": "2 54048   0.0469 293.9062 0002242  58.2230  70.6291  1.00271294 11433"}}, "geometry": {"type": "Point", "coordinates": [-128.0257811340615, -0.06309753188390678]}}, {"type": "Feature", "properties": {"norad_id": 54225, "name": "EUTELSAT HOTBIRD 13G", "group": "eutelsat", "lat": -0.02514911439985671, "lon": -127.9987354141137, "alt_km": 35780.5653783166, "timestamp": "2025-12-06T09:34:16.589356+00:00", "meta": {"OBJECT_NAME": "EUTELSAT HOTBIRD 13G", "OBJECT_ID": "2022-146A", "EPOCH": "2025-12-05T15:28:18.292224", "MEAN_MOTION": 1.00270321, "ECCENTRICITY": 0.00019255, "INCLINATION": 0.0461, "RA_OF_ASC_NODE": 235.0424, "ARG_OF_PERICENTER": 313.1322, "MEAN_ANOMALY": 131.5912, "EPHEMERIS_TYPE": 0, "CLASSIFICATION_TYPE": "U", "NORAD_CAT_ID": 54225, "ELEMENT_SET_NO": 999, "REV_AT_EPOCH": 552, "BSTAR": 0, "MEAN_MOTION_DOT": 9.7e-07, "MEAN_MOTION_DDOT": 0}, "tle": {"line1": "1 54225U 22146A   25339.64465616  .00000097  00000+0  00000+0 0  9997", "line2": "2 54225   0.0461 235.0424 0001925 313.1322 131.5912  1.00270321  5523"}}, "geometry": {"type": "Point", "coordinates": [-127.9987354141137, -0.02514911439985671]}}, {"type": "Feature", "properties": {"norad_id": 54259, "name": "EUTELSAT 10B", "group": "eutelsat", "lat": 0.01541556250523523, "lon": -131.00102895250959, "alt_km": 35783.69913347478, "timestamp": "2025-12-06T09:34:16.589368+00:00", "meta": {"OBJECT_NAME": "EUTELSAT 10B", "OBJECT_ID": "2022-157A", "EPOCH": "2025-12-05T22:18:14.798880", "MEAN_MOTION": 1.00268186, "ECCENTRICITY": 0.0001157, "INCLINATION": 0.0609, "RA_OF_ASC_NODE": 104.8403, "ARG_OF_PERICENTER": 77.592, "MEAN_ANOMALY": 237.1051, "EPHEMERIS_TYPE": 0, "CLASSIFICATION_TYPE": "U", "NORAD_CAT_ID": 54259, "ELEMENT_SET_NO": 999, "REV_AT_EPOCH": 1108, "BSTAR": 0, "MEAN_MOTION_DOT": 7.7e-07, "MEAN_MOTION_DDOT": 0}, "tle": {"line1": "1 54259U 22157A   25339.92933795  .00000077  00000+0  00000+0 0  9993", "line2": "2 54259   0.0609 104.8403 0001157  77.5920 237.1051  1.00268186 11087"}}, "geometry": {"type": "Point", "coordinates": [-131.00102895250959, 0.01541556250523523]}}, {"type": "Feature", "properties": {"norad_id": 59346, "name": "EUTELSAT 36D", "group": "eutelsat", "lat": -0.046364539074066555, "lon": -105.14703704177, "alt_km": 35784.527553273285, "timestamp": "2025-12-06T09:34:16.589379+00:00", "meta": {"OBJECT_NAME": "EUTELSAT 36D", "OBJECT_ID": "2024-059A", "EPOCH": "2025-12-05T21:12:21.661920", "MEAN_MOTION": 1.00272563, "ECCENTRICITY": 7.535e-05, "INCLINATION": 0.0214, "RA_OF_ASC_NODE": 349.7189, "ARG_OF_PERICENTER": 331.5769, "MEAN_ANOMALY": 107.5891, "EPHEMERIS_TYPE": 0, "CLASSIFICATION_TYPE": "U", "NORAD_CAT_ID": 59346, "ELEMENT_SET_NO": 999, "REV_AT_EPOCH": 620, "BSTAR": 0, "MEAN_MOTION_DOT": 0, "MEAN_MOTION_DDOT": 0}, "tle": {"line1": "1 59346U 24059A   25339.88358405  .00000000  00000+0  00000+0 0  9998", "line2": "2 59346   0.0214 349.7189 0000753 331.5769 107.5891  1.00272563  6201"}}, "geometry": {"type": "Point", "coordinates": [-105.14703704177, -0.046364539074066555]}}]}